{
  "norad_id": 39446,
  "name": "UWE-3",
  "history": [
    {
      "epoch": "2026-03-28T20:32:03.082272Z",
      "apogee_km": 611.7975965269643,
      "perigee_km": 544.4426629920699,
      "latitude_deg": 2.1988349716001855e-05,
      "longitude_deg": -90.81489092637361,
      "height_km": 604.2752966492584,
      "semi_major_axis_km": 6956.257129759517,
      "eccentricity": 0.00484132,
      "inclination_deg": 97.8615,
      "raan_deg": 43.468,
      "arg_perigee_deg": 226.6001,
      "mean_anomaly_deg": 133.1185,
      "mean_motion_rev_day": 14.96371134
    },
    {
      "epoch": "2026-03-30T03:01:36.297120Z",
      "apogee_km": 611.8389979599679,
      "perigee_km": 544.3057522353329,
      "latitude_deg": 7.227411941599428e-05,
      "longitude_deg": 171.8209226369584,
      "height_km": 606.0926938018496,
      "semi_major_axis_km": 6956.20937509765,
      "eccentricity": 0.00485417,
      "inclination_deg": 97.862,
      "raan_deg": 44.7445,
      "arg_perigee_deg": 222.2471,
      "mean_anomaly_deg": 137.5007,
      "mean_motion_rev_day": 14.96386543
    },
    {
      "epoch": "2026-03-30T09:26:46.333248Z",
      "apogee_km": 611.8403220104456,
      "perigee_km": 544.2897569971501,
      "latitude_deg": 9.266020638736189e-06,
      "longitude_deg": 75.53417677176853,
      "height_km": 606.4595716129134,
      "semi_major_axis_km": 6956.202039503798,
      "eccentricity": 0.00485542,
      "inclination_deg": 97.862,
      "raan_deg": 45.0132,
      "arg_perigee_deg": 221.3153,
      "mean_anomaly_deg": 138.4391,
      "mean_motion_rev_day": 14.9638891
    },
    {
      "epoch": "2026-03-30T20:40:48.722592Z",
      "apogee_km": 611.8596139357223,
      "perigee_km": 544.2313296974226,
      "latitude_deg": -4.858919596438047e-05,
      "longitude_deg": -92.96713420619642,
      "height_km": 607.0823141388112,
      "semi_major_axis_km": 6956.182471816572,
      "eccentricity": 0.00486102,
      "inclination_deg": 97.8621,
      "raan_deg": 45.4832,
      "arg_perigee_deg": 219.7241,
      "mean_anomaly_deg": 140.0416,
      "mean_motion_rev_day": 14.96395224
    },
    {
      "epoch": "2026-03-31T20:45:10.652832Z",
      "apogee_km": 611.884522615801,
      "perigee_km": 544.1441297710635,
      "latitude_deg": -2.0428651925551186e-05,
      "longitude_deg": -94.03934575765706,
      "height_km": 608.3485974489299,
      "semi_major_axis_km": 6956.1513261934315,
      "eccentricity": 0.0048691,
      "inclination_deg": 97.8625,
      "raan_deg": 46.491,
      "arg_perigee_deg": 216.2953,
      "mean_anomaly_deg": 143.4962,
      "mean_motion_rev_day": 14.96405274
    },
    {
      "epoch": "2026-04-01T09:35:30.109920Z",
      "apogee_km": 611.908471996885,
      "perigee_km": 544.1027761544456,
      "latitude_deg": -8.298780818996188e-06,
      "longitude_deg": 73.38981382183484,
      "height_km": 609.0058240395366,
      "semi_major_axis_km": 6956.1426240756655,
      "eccentricity": 0.0048738,
      "inclination_deg": 97.8627,
      "raan_deg": 47.0285,
      "arg_perigee_deg": 214.4371,
      "mean_anomaly_deg": 145.3689,
      "mean_motion_rev_day": 14.96408082
    },
    {
      "epoch": "2026-04-02T09:39:51.145056Z",
      "apogee_km": 611.9110068022437,
      "perigee_km": 544.0129420786689,
      "latitude_deg": 2.7844579107192708e-05,
      "longitude_deg": 72.32134063219807,
      "height_km": 610.1245791882519,
      "semi_major_axis_km": 6956.098974440456,
      "eccentricity": 0.00488047,
      "inclination_deg": 97.863,
      "raan_deg": 48.0363,
      "arg_perigee_deg": 210.9409,
      "mean_anomaly_deg": 148.8935,
      "mean_motion_rev_day": 14.96422167
    },
    {
      "epoch": "2026-04-03T19:21:55.130976Z",
      "apogee_km": 611.9021461599223,
      "perigee_km": 543.8791517806421,
      "latitude_deg": -8.930409717470223e-05,
      "longitude_deg": -73.16840621241764,
      "height_km": 611.4982482551543,
      "semi_major_axis_km": 6956.027648970282,
      "eccentricity": 0.0048895,
      "inclination_deg": 97.8634,
      "raan_deg": 49.4472,
      "arg_perigee_deg": 206.05,
      "mean_anomaly_deg": 153.8259,
      "mean_motion_rev_day": 14.96445183
    },
    {
      "epoch": "2026-04-03T19:21:55.131840Z",
      "apogee_km": 611.902215720198,
      "perigee_km": 543.8790822203655,
      "latitude_deg": -8.880934626333858e-05,
      "longitude_deg": -73.16840989023473,
      "height_km": 611.4983107618895,
      "semi_major_axis_km": 6956.027648970282,
      "eccentricity": 0.00488951,
      "inclination_deg": 97.8634,
      "raan_deg": 49.4472,
      "arg_perigee_deg": 206.05,
      "mean_anomaly_deg": 153.8259,
      "mean_motion_rev_day": 14.96445183
    },
    {
      "epoch": "2026-04-05T09:52:49.094112Z",
      "apogee_km": 611.9059679154543,
      "perigee_km": 543.7523851530368,
      "latitude_deg": 7.432557025318663e-06,
      "longitude_deg": 69.13757797322152,
      "height_km": 612.8178200669544,
      "semi_major_axis_km": 6955.966176534245,
      "eccentricity": 0.00489893,
      "inclination_deg": 97.8634,
      "raan_deg": 51.0598,
      "arg_perigee_deg": 200.4377,
      "mean_anomaly_deg": 159.4885,
      "mean_motion_rev_day": 14.9646502
    },
    {
      "epoch": "2026-04-05T19:30:32.335200Z",
      "apogee_km": 611.9068001357027,
      "perigee_km": 543.7231675994353,
      "latitude_deg": 4.342161716838711e-05,
      "longitude_deg": -75.2848346466103,
      "height_km": 613.0997567154544,
      "semi_major_axis_km": 6955.951983867569,
      "eccentricity": 0.0049011,
      "inclination_deg": 97.8637,
      "raan_deg": 51.463,
      "arg_perigee_deg": 199.039,
      "mean_anomaly_deg": 160.9001,
      "mean_motion_rev_day": 14.964696
    }
  ]
}